{"type": "FeatureCollection", "features": [{"type": "Feature", "properties": {"norad_id": 24946, "name": "IRIDIUM 33", "group": "iridium-33-debris", "lat": -14.500973529338001, "lon": -112.71690379401187, "alt_km": 774.3648592230975, "timestamp": "2025-12-17T04:57:44.746172+00:00", "meta": {"OBJECT_NAME": "IRIDIUM 33", "OBJECT_ID": "1997-051C", "EPOCH": "2025-12-16T18:01:06.095136", "MEAN_MOTION": 14.35040316, "ECCENTRICITY": 0.00075097, "INCLINATION": 86.3869, "RA_OF_ASC_NODE": 66.5381, "ARG_OF_PERICENTER": 186.4465, "MEAN_ANOMALY": 173.6635, "EPHEMERIS_TYPE": 0, "CLASSIFICATION_TYPE": "U", "NORAD_CAT_ID": 24946, "ELEMENT_SET_NO": 999, "REV_AT_EPOCH": 47892, "BSTAR": 0.00010229883, "MEAN_MOTION_DOT": 3.11e-06, "MEAN_MOTION_DDOT": 0}, "tle": {"line1": "1 24946U 97051C   25350.75076499  .00000311  00000+0  10230-3 0  9992", "line2": "2 24946  86.3869  66.5381 0007509 186.4465 173.6635 14.35040316478929"}}, "geometry": {"type": "Point", "coordinates": [-112.71690379401187, -14.500973529338001]}}, {"type": "Feature", "properties": {"norad_id": 33773, "name": "IRIDIUM 33 DEB", "group": "iridium-33-debris", "lat": -76.04892539191378, "lon": 44.01934040927605, "alt_km": 763.1117826966956, "timestamp": "2025-12-17T04:57:44.746211+00:00", "meta": {"OBJECT_NAME": "IRIDIUM 33 DEB", "OBJECT_ID": "1997-051L", "EPOCH": "2025-12-16T22:39:41.403744", "MEAN_MOTION": 14.43266321, "ECCENTRICITY": 0.00128699, "INCLINATION": 86.4007, "RA_OF_ASC_NODE": 58.8078, "ARG_OF_PERICENTER": 134.0853, "MEAN_ANOMALY": 226.141, "EPHEMERIS_TYPE": 0, "CLASSIFICATION_TYPE": "U", "NORAD_CAT_ID": 33773, "ELEMENT_SET_NO": 999, "REV_AT_EPOCH": 88408, "BSTAR": 0.0002665068, "MEAN_MOTION_DOT": 9.17e-06, "MEAN_MOTION_DDOT": 0}, "tle": {"line1": "1 33773U 97051L   25350.94422921  .00000917  00000+0  26651-3 0  9992", "line2": "2 33773  86.4007  58.8078 0012869 134.0853 226.1410 14.43266321884082"}}, "geometry": {"type": "Point", "coordinates": [44.01934040927605, -76.04892539191378]}}, {"type": "Feature", "properties": {"norad_id": 33775, "name": "IRIDIUM 33 DEB", "group": "iridium-33-debris", "lat": -21.88489429370526, "lon": 46.18275962017071, "alt_km": 769.0808237683377, "timestamp": "2025-12-17T04:57:44.746224+00:00", "meta": {"OBJECT_NAME": "IRIDIUM 33 DEB", "OBJECT_ID": "1997-051N", "EPOCH": "2025-12-16T22:57:10.181376", "MEAN_MOTION": 14.41477634, "ECCENTRICITY": 0.00147333, "INCLINATION": 86.3634, "RA_OF_ASC_NODE": 47.7535, "ARG_OF_PERICENTER": 141.846, "MEAN_ANOMALY": 337.8084, "EPHEMERIS_TYPE": 0, "CLASSIFICATION_TYPE": "U", "NORAD_CAT_ID": 33775, "ELEMENT_SET_NO": 999, "REV_AT_EPOCH": 88201, "BSTAR": 0.00027617117, "MEAN_MOTION_DOT": 9.17e-06, "MEAN_MOTION_DDOT": 0}, "tle": {"line1": "1 33775U 97051N   25350.95636784  .00000917  00000+0  27617-3 0  9992", "line2": "2 33775  86.3634  47.7535 0014733 141.8460 337.8084 14.41477634882013"}}, "geometry": {"type": "Point", "coordinates": [46.18275962017071, -21.88489429370526]}}, {"type": "Feature", "properties": {"norad_id": 33776, "name": "IRIDIUM 33 DEB", "group": "iridium-33-debris", "lat": 23.922537672980305, "lon": -102.69845748855666, "alt_km": 753.8339392767411, "timestamp": "2025-12-17T04:57:44.746236+00:00", "meta": {"OBJECT_NAME": "IRIDIUM 33 DEB", "OBJECT_ID": "1997-051P", "EPOCH": "2025-12-17T00:02:05.456256", "MEAN_MOTION": 14.38242699, "ECCENTRICITY": 0.00148629, "INCLINATION": 86.4038, "RA_OF_ASC_NODE": 78.9864, "ARG_OF_PERICENTER": 176.3786, "MEAN_ANOMALY": 357.2171, "EPHEMERIS_TYPE": 0, "CLASSIFICATION_TYPE": "U", "NORAD_CAT_ID": 33776, "ELEMENT_SET_NO": 999, "REV_AT_EPOCH": 88143, "BSTAR": 0.00024087301, "MEAN_MOTION_DOT": 7.52e-06, "MEAN_MOTION_DDOT": 0}, "tle": {"line1": "1 33776U 97051P   25351.00145204  .00000752  00000+0  24087-3 0  9997", "line2": "2 33776  86.4038  78.9864 0014862 176.3786 357.2171 14.38242699881436"}}, "geometry": {"type": "Point", "coordinates": [-102.69845748855666, 23.922537672980305]}}, {"type": "Feature", "properties": {"norad_id": 33777, "name": "IRIDIUM 33 DEB", "group": "iridium-33-debris", "lat": -42.952726876546066, "lon": -143.35914795144464, "alt_km": 710.1915732097232, "timestamp": "2025-12-17T04:57:44.746247+00:00", "meta": {"OBJECT_NAME": "IRIDIUM 33 DEB", "OBJECT_ID": "1997-051Q", "EPOCH": "2025-12-16T14:44:32.574624", "MEAN_MOTION": 14.55643201, "ECCENTRICITY": 0.00054167, "INCLINATION": 86.3785, "RA_OF_ASC_NODE": 33.5183, "ARG_OF_PERICENTER": 231.3844, "MEAN_ANOMALY": 128.6879, "EPHEMERIS_TYPE": 0, "CLASSIFICATION_TYPE": "U", "NORAD_CAT_ID": 33777, "ELEMENT_SET_NO": 999, "REV_AT_EPOCH": 88590, "BSTAR": 0.0006347457, "MEAN_MOTION_DOT": 2.791e-05, "MEAN_MOTION_DDOT": 0}, "tle": {"line1": "1 33777U 97051Q   25350.61426591  .00002791  00000+0  63475-3 0  9994", "line2": "2 33777  86.3785  33.5183 0005416 231.3844 128.6879 14.55643201885902"}}, "geometry": {"type": "Point", "coordinates": [-143.35914795144464, -42.952726876546066]}}, {"type": "Feature", "properties": {"norad_id": 33850, "name": "IRIDIUM 33 DEB", "group": "iridium-33-debris", "lat": -30.029992868715684, "lon": 26.139255465494777, "alt_km": 766.4303698415752, "timestamp": "2025-12-17T04:57:44.746258+00:00", "meta": {"OBJECT_NAME": "IRIDIUM 33 DEB", "OBJECT_ID": "1997-051T", "EPOCH": "2025-12-16T23:02:48.261120", "MEAN_MOTION": 14.42155288, "ECCENTRICITY": 0.00126508, "INCLINATION": 86.3414, "RA_OF_ASC_NODE": 28.3648, "ARG_OF_PERICENTER": 148.2103, "MEAN_ANOMALY": 342.9202, "EPHEMERIS_TYPE": 0, "CLASSIFICATION_TYPE": "U", "NORAD_CAT_ID": 33850, "ELEMENT_SET_NO": 999, "REV_AT_EPOCH": 88213, "BSTAR": 0.00028004209, "MEAN_MOTION_DOT": 9.42e-06, "MEAN_MOTION_DDOT": 0}, "tle": {"line1": "1 33850U 97051T   25350.96028080  .00000942  00000+0  28004-3 0  9990", "line2": "2 33850  86.3414  28.3648 0012650 148.2103 342.9202 14.42155288882135"}}, "geometry": {"type": "Point", "coordinates": [26.139255465494777, -30.029992868715684]}}, {"type": "Feature", "properties": {"norad_id": 33853, "name": "IRIDIUM 33 DEB", "group": "iridium-33-debris", "lat": 22.064313716284857, "lon": -10.522012895452933, "alt_km": 1038.1324961770752, "timestamp": "2025-12-17T04:57:44.746269+00:00", "meta": {"OBJECT_NAME": "IRIDIUM 33 DEB", "OBJECT_ID": "1997-051W", "EPOCH": "2025-12-16T23:58:17.677344", "MEAN_MOTION": 13.99087192, "ECCENTRICITY": 0.02070549, "INCLINATION": 85.9997, "RA_OF_ASC_NODE": 347.9438, "ARG_OF_PERICENTER": 222.6309, "MEAN_ANOMALY": 192.0216, "EPHEMERIS_TYPE": 0, "CLASSIFICATION_TYPE": "U", "NORAD_CAT_ID": 33853, "ELEMENT_SET_NO": 999, "REV_AT_EPOCH": 85405, "BSTAR": 0.0014446517, "MEAN_MOTION_DOT": 2.528e-05, "MEAN_MOTION_DDOT": 0}, "tle": {"line1": "1 33853U 97051W   25350.99881571  .00002528  00000+0  14447-2 0  9995", "line2": "2 33853  85.9997 347.9438 0207054 222.6309 192.0216 13.99087192854053"}}, "geometry": {"type": "Point", "coordinates": [-10.522012895452933, 22.064313716284857]}}, {"type": "Feature", "properties": {"norad_id": 33860, "name": "IRIDIUM 33 DEB", "group": "iridium-33-debris", "lat": -50.68574666096628, "lon": 20.83145558789034, "alt_km": 672.1946916739198, "timestamp": "2025-12-17T04:57:44.746279+00:00", "meta": {"OBJECT_NAME": "IRIDIUM 33 DEB", "OBJECT_ID": "1997-051AD", "EPOCH": "2025-12-16T20:10:17.664672", "MEAN_MOTION": 14.6742014, "ECCENTRICITY": 0.00069329, "INCLINATION": 86.3832, "RA_OF_ASC_NODE": 25.4234, "ARG_OF_PERICENTER": 342.8296, "MEAN_ANOMALY": 192.7464, "EPHEMERIS_TYPE": 0, "CLASSIFICATION_TYPE": "U", "NORAD_CAT_ID": 33860, "ELEMENT_SET_NO": 999, "REV_AT_EPOCH": 88782, "BSTAR": 0.00087524294, "MEAN_MOTION_DOT": 4.973e-05, "MEAN_MOTION_DDOT": 0}, "tle": {"line1": "1 33860U 97051AD  25350.84048223  .00004973  00000+0  87524-3 0  9999", "line2": "2 33860  86.3832  25.4234 0006932 342.8296 192.7464 14.67420140887821"}}, "geometry": {"type": "Point", "coordinates": [20.83145558789034, -50.68574666096628]}}, {"type": "Feature", "properties": {"norad_id": 33862, "name": "IRIDIUM 33 DEB", "group": "iridium-33-debris", "lat": 18.082141002202256, "lon": 36.73575425148756, "alt_km": 632.6663181367576, "timestamp": "2025-12-17T04:57:44.746289+00:00", "meta": {"OBJECT_NAME": "IRIDIUM 33 DEB", "OBJECT_ID": "1997-051AF", "EPOCH": "2025-12-16T16:22:06.218688", "MEAN_MOTION": 14.69541071, "ECCENTRICITY": 0.00530982, "INCLINATION": 86.4093, "RA_OF_ASC_NODE": 35.7923, "ARG_OF_PERICENTER": 56.0255, "MEAN_ANOMALY": 68.2506, "EPHEMERIS_TYPE": 0, "CLASSIFICATION_TYPE": "U", "NORAD_CAT_ID": 33862, "ELEMENT_SET_NO": 999, "REV_AT_EPOCH": 88881, "BSTAR": 0.0010087056, "MEAN_MOTION_DOT": 6.14e-05, "MEAN_MOTION_DDOT": 0}, "tle": {"line1": "1 33862U 97051AF  25350.68201642  .00006140  00000+0  10087-2 0  9996", "line2": "2 33862  86.4093  35.7923 0053098  56.0255  68.2506 14.69541071888819"}}, "geometry": {"type": "Point", "coordinates": [36.73575425148756, 18.082141002202256]}}, {"type": "Feature", "properties": {"norad_id": 33866, "name": "IRIDIUM 33 DEB", "group": "iridium-33-debris", "lat": 85.53053393265658, "lon": -144.72938337311112, "alt_km": 751.759655511386, "timestamp": "2025-12-17T04:57:44.746299+00:00", "meta": {"OBJECT_NAME": "IRIDIUM 33 DEB", "OBJECT_ID": "1997-051AK", "EPOCH": "2025-12-16T19:01:21.853056", "MEAN_MOTION": 14.25288493, "ECCENTRICITY": 0.01147919, "INCLINATION": 86.3001, "RA_OF_ASC_NODE": 91.321, "ARG_OF_PERICENTER": 148.5346, "MEAN_ANOMALY": 341.3253, "EPHEMERIS_TYPE": 0, "CLASSIFICATION_TYPE": "U", "NORAD_CAT_ID": 33866, "ELEMENT_SET_NO": 999, "REV_AT_EPOCH": 86868, "BSTAR": 0.00046900019, "MEAN_MOTION_DOT": 1.202e-05, "MEAN_MOTION_DDOT": 0}, "tle": {"line1": "1 33866U 97051AK  25350.79261404  .00001202  00000+0  46900-3 0  9992", "line2": "2 33866  86.3001  91.3210 0114791 148.5346 341.3253 14.25288493868689"}}, "geometry": {"type": "Point", "coordinates": [-144.72938337311112, 85.53053393265658]}}]}